{
    "links": {
        "self": "http://www.neowsapp.com/rest/v1/neo/3753568?api_key=iIulBulltgU6a56xZRHN4H3l9WmuAYTsLGpBGhQ2"
    },
    "id": "3753568",
    "neo_reference_id": "3753568",
    "name": "(2016 KF)",
    "designation": "2016 KF",
    "nasa_jpl_url": "http://ssd.jpl.nasa.gov/sbdb.cgi?sstr=3753568",
    "absolute_magnitude_h": 20.3,
    "estimated_diameter": {
        "kilometers": {
            "estimated_diameter_min": 0.2315021222,
            "estimated_diameter_max": 0.5176544822
        },
        "meters": {
            "estimated_diameter_min": 231.5021222103,
            "estimated_diameter_max": 517.6544821978
        },
        "miles": {
            "estimated_diameter_min": 0.1438487052,
            "estimated_diameter_max": 0.3216554833
        },
        "feet": {
            "estimated_diameter_min": 759.5214226325,
            "estimated_diameter_max": 1698.3415313737
        }
    },
    "is_potentially_hazardous_asteroid": false,
    "close_approach_data": [
        {
            "close_approach_date": "1906-03-08",
            "close_approach_date_full": "1906-Mar-08 18:35",
            "epoch_date_close_approach": -2013917100000,
            "relative_velocity": {
                "kilometers_per_second": "8.0734060622",
                "kilometers_per_hour": "29064.2618240561",
                "miles_per_hour": "18059.4020206197"
            },
            "miss_distance": {
                "astronomical": "1.0068946982",
                "lunar": "391.6820375998",
                "kilometers": "150629302.165012834",
                "miles": "93596708.2283077492"
            },
            "orbiting_body": "Juptr"
        },
        {
            "close_approach_date": "1965-06-25",
            "close_approach_date_full": "1965-Jun-25 20:24",
            "epoch_date_close_approach": -142572960000,
            "relative_velocity": {
                "kilometers_per_second": "7.4025887554",
                "kilometers_per_hour": "26649.3195195644",
                "miles_per_hour": "16558.8507870315"
            },
            "miss_distance": {
                "astronomical": "1.3126003528",
                "lunar": "510.6015372392",
                "kilometers": "196362216.940128536",
                "miles": "122013823.7504083568"
            },
            "orbiting_body": "Juptr"
        },
        {
            "close_approach_date": "2016-06-04",
            "close_approach_date_full": "2016-Jun-04 08:21",
            "epoch_date_close_approach": 1465028460000,
            "relative_velocity": {
                "kilometers_per_second": "18.1597845885",
                "kilometers_per_hour": "65375.2245184232",
                "miles_per_hour": "40621.6221459058"
            },
            "miss_distance": {
                "astronomical": "0.3124833447",
                "lunar": "121.5560210883",
                "kilometers": "46746842.777595789",
                "miles": "29047141.1681643282"
            },
            "orbiting_body": "Earth"
        },
        {
            "close_approach_date": "2024-07-21",
            "close_approach_date_full": "2024-Jul-21 11:39",
            "epoch_date_close_approach": 1721561940000,
            "relative_velocity": {
                "kilometers_per_second": "7.5702809167",
                "kilometers_per_hour": "27253.0113001409",
                "miles_per_hour": "16933.9613825792"
            },
            "miss_distance": {
                "astronomical": "1.8810562323",
                "lunar": "731.7308743647",
                "kilometers": "281402005.702305201",
                "miles": "174855098.2047697338"
            },
            "orbiting_body": "Juptr"
        },
        {
            "close_approach_date": "2036-07-08",
            "close_approach_date_full": "2036-Jul-08 05:23",
            "epoch_date_close_approach": 2099107380000,
            "relative_velocity": {
                "kilometers_per_second": "9.8160730956",
                "kilometers_per_hour": "35337.863144058",
                "miles_per_hour": "21957.5739074842"
            },
            "miss_distance": {
                "astronomical": "0.9289273606",
                "lunar": "361.3527432734",
                "kilometers": "138965554.530481922",
                "miles": "86349191.5200256436"
            },
            "orbiting_body": "Juptr"
        }
    ],
    "orbital_data": {
        "orbit_id": "22",
        "orbit_determination_date": "2017-04-06 08:25:46",
        "first_observation_date": "2016-05-19",
        "last_observation_date": "2016-06-30",
        "data_arc_in_days": 42,
        "observations_used": 121,
        "orbit_uncertainty": "6",
        "minimum_orbit_intersection": ".314487",
        "jupiter_tisserand_invariant": "2.727",
        "epoch_osculation": "2459000.5",
        "eccentricity": ".5942668834461138",
        "semi_major_axis": "3.088781020164844",
        "inclination": "32.75035168124102",
        "ascending_node_longitude": "82.58176850628286",
        "orbital_period": "1982.800897665434",
        "perihelion_distance": "1.253220749663974",
        "perihelion_argument": "142.1397762563014",
        "aphelion_distance": "4.924341290665714",
        "perihelion_time": "2459494.459017938566",
        "mean_anomaly": "270.3161357919211",
        "mean_motion": ".1815613460856645",
        "equinox": "J2000",
        "orbit_class": {
            "orbit_class_type": "AMO",
            "orbit_class_description": "Near-Earth asteroid orbits similar to that of 1221 Amor",
            "orbit_class_range": "1.017 AU < q (perihelion) < 1.3 AU"
        }
    },
    "is_sentry_object": false
}